METEOR-M2 3             
1 57166U 23091A   26095.58765240  .00000027  00000+0  30411-4 0  9990
2 57166  98.6163 152.0266 0004446  36.7859 323.3624 14.24040694144183
UMKA 1 (RS40S)          
1 57172U 23091G   26095.56665087  .00008418  00000+0  39281-3 0  9998
2 57172  97.5118 154.5618 0013210  20.2957 339.8800 15.20022269152971
2023-091H               
1 57173U 23091H   26095.55056150  .00013827  00000+0  52126-3 0  9996
2 57173  97.5110 158.2176 0010140  19.2817 340.8803 15.27137633153218
2023-091J               
1 57174U 23091J   26095.60387586  .00004885  00000+0  27627-3 0  9995
2 57174  97.5130 149.7323 0014390  44.5341 315.7044 15.13452592152658
CUBEBEL 2 (EU11S)       
1 57175U 23091K   26095.57253304  .00016228  00000+0  60442-3 0  9998
2 57175  97.5114 158.2125 0010197  20.9688 339.1967 15.27498430153212
SITRO-AIS 5 (KATYS)     
1 57176U 23091L   26095.60503065  .00015373  00000+0  56618-3 0  9995
2 57176  97.5120 158.8830 0011410   6.7416 353.3975 15.27870458153254
ZORKIY-2M 1             
1 57177U 23091M   26095.55437982  .00009153  00000+0  42698-3 0  9996
2 57177  97.5160 154.7757 0013660  17.2149 342.9546 15.19999464152966
CUBESX-HSE 3 (RS42S)    
1 57178U 23091N   26095.59205813  .00017510  00000+0  61379-3 0  9990
2 57178  97.5149 160.3419 0010545 357.4027   2.7156 15.29472224153325
MONITOR-3 (RS58S)       
1 57180U 23091Q   26095.39957822  .00014333  00000+0  55131-3 0  9994
2 57180  97.5144 158.3688 0011691   3.9322 356.2006 15.26445512153184
MONITOR-4 (RS57S)       
1 57182U 23091S   26095.44870901  .00014410  00000+0  55269-3 0  9992
2 57182  97.5138 158.3849 0011606   4.3518 355.7820 15.26539410153196
MONITOR-2 (RS39S)       
1 57184U 23091U   26095.56636659  .00007050  00000+0  34684-3 0  9997
2 57184  97.5141 154.3281 0011458  13.9074 346.2473 15.18261149152938
SVYATOBOR 1 (RS60S)     
1 57187U 23091X   26095.60082235  .00012106  00000+0  48104-3 0  9990
2 57187  97.5149 159.0615 0009130 357.2748   2.8439 15.25427105153244
HORS 1                  
1 57188U 23091Y   26095.52520851  .00012418  00000+0  49224-3 0  9993
2 57188  97.5129 158.7583 0008652 357.9723   2.1478 15.25505704153238
VIZARD-METEO (RS38S)    
1 57189U 23091Z   26095.58626572  .00020504  00000+0  62786-3 0  9990
2 57189  97.5141 163.7265 0006426 338.6443  21.4530 15.33826588153551
NANOZOND 1 (RS49S)      
1 57190U 23091AA  26095.50100938  .00625881  16147-3  17757-2 0  9996
2 57190  97.4951 178.2006 0007336 260.9774  99.0670 15.93327729154512
SITRO-AIS 6 (CHIRKIN)   
1 57192U 23091AC  26095.55753002  .00008427  00000+0  34139-3 0  9991
2 57192  97.5128 158.3163 0012187  10.4978 349.6511 15.24851681153215
