[{"OBJECT_NAME":"METEOR-M2 3","OBJECT_ID":"2023-091A","EPOCH":"2026-04-05T14:06:13.167360","MEAN_MOTION":14.24040694,"ECCENTRICITY":0.00044464,"INCLINATION":98.6163,"RA_OF_ASC_NODE":152.0266,"ARG_OF_PERICENTER":36.7859,"MEAN_ANOMALY":323.3624,"EPHEMERIS_TYPE":0,"CLASSIFICATION_TYPE":"U","NORAD_CAT_ID":57166,"ELEMENT_SET_NO":999,"REV_AT_EPOCH":14418,"BSTAR":3.0411213e-5,"MEAN_MOTION_DOT":2.7e-7,"MEAN_MOTION_DDOT":0},{"OBJECT_NAME":"UMKA 1 (RS40S)","OBJECT_ID":"2023-091G","EPOCH":"2026-04-05T13:35:58.635168","MEAN_MOTION":15.20022269,"ECCENTRICITY":0.001321,"INCLINATION":97.5118,"RA_OF_ASC_NODE":154.5618,"ARG_OF_PERICENTER":20.2957,"MEAN_ANOMALY":339.88,"EPHEMERIS_TYPE":0,"CLASSIFICATION_TYPE":"U","NORAD_CAT_ID":57172,"ELEMENT_SET_NO":999,"REV_AT_EPOCH":15297,"BSTAR":0.00039281197,"MEAN_MOTION_DOT":8.418e-5,"MEAN_MOTION_DDOT":0},{"OBJECT_NAME":"2023-091H","OBJECT_ID":"2023-091H","EPOCH":"2026-04-05T13:12:48.513600","MEAN_MOTION":15.27137633,"ECCENTRICITY":0.00101405,"INCLINATION":97.511,"RA_OF_ASC_NODE":158.2176,"ARG_OF_PERICENTER":19.2817,"MEAN_ANOMALY":340.8803,"EPHEMERIS_TYPE":0,"CLASSIFICATION_TYPE":"U","NORAD_CAT_ID":57173,"ELEMENT_SET_NO":999,"REV_AT_EPOCH":15321,"BSTAR":0.00052125526,"MEAN_MOTION_DOT":0.00013827,"MEAN_MOTION_DDOT":0},{"OBJECT_NAME":"2023-091J","OBJECT_ID":"2023-091J","EPOCH":"2026-04-05T14:29:34.874304","MEAN_MOTION":15.13452592,"ECCENTRICITY":0.00143908,"INCLINATION":97.513,"RA_OF_ASC_NODE":149.7323,"ARG_OF_PERICENTER":44.5341,"MEAN_ANOMALY":315.7044,"EPHEMERIS_TYPE":0,"CLASSIFICATION_TYPE":"U","NORAD_CAT_ID":57174,"ELEMENT_SET_NO":999,"REV_AT_EPOCH":15265,"BSTAR":0.00027626896,"MEAN_MOTION_DOT":4.885e-5,"MEAN_MOTION_DDOT":0},{"OBJECT_NAME":"CUBEBEL 2 (EU11S)","OBJECT_ID":"2023-091K","EPOCH":"2026-04-05T13:44:26.854656","MEAN_MOTION":15.2749843,"ECCENTRICITY":0.00101974,"INCLINATION":97.5114,"RA_OF_ASC_NODE":158.2125,"ARG_OF_PERICENTER":20.9688,"MEAN_ANOMALY":339.1967,"EPHEMERIS_TYPE":0,"CLASSIFICATION_TYPE":"U","NORAD_CAT_ID":57175,"ELEMENT_SET_NO":999,"REV_AT_EPOCH":15321,"BSTAR":0.00060442292,"MEAN_MOTION_DOT":0.00016228,"MEAN_MOTION_DDOT":0},{"OBJECT_NAME":"SITRO-AIS 5 (KATYS)","OBJECT_ID":"2023-091L","EPOCH":"2026-04-05T14:31:14.648160","MEAN_MOTION":15.27870458,"ECCENTRICITY":0.00114101,"INCLINATION":97.512,"RA_OF_ASC_NODE":158.883,"ARG_OF_PERICENTER":6.7416,"MEAN_ANOMALY":353.3975,"EPHEMERIS_TYPE":0,"CLASSIFICATION_TYPE":"U","NORAD_CAT_ID":57176,"ELEMENT_SET_NO":999,"REV_AT_EPOCH":15325,"BSTAR":0.00056617965,"MEAN_MOTION_DOT":0.00015373,"MEAN_MOTION_DDOT":0},{"OBJECT_NAME":"ZORKIY-2M 1","OBJECT_ID":"2023-091M","EPOCH":"2026-04-05T13:18:18.416448","MEAN_MOTION":15.19999464,"ECCENTRICITY":0.001366,"INCLINATION":97.516,"RA_OF_ASC_NODE":154.7757,"ARG_OF_PERICENTER":17.2149,"MEAN_ANOMALY":342.9546,"EPHEMERIS_TYPE":0,"CLASSIFICATION_TYPE":"U","NORAD_CAT_ID":57177,"ELEMENT_SET_NO":999,"REV_AT_EPOCH":15296,"BSTAR":0.00042698233,"MEAN_MOTION_DOT":9.153e-5,"MEAN_MOTION_DDOT":0},{"OBJECT_NAME":"CUBESX-HSE 3 (RS42S)","OBJECT_ID":"2023-091N","EPOCH":"2026-04-05T14:12:33.822432","MEAN_MOTION":15.29472224,"ECCENTRICITY":0.00105458,"INCLINATION":97.5149,"RA_OF_ASC_NODE":160.3419,"ARG_OF_PERICENTER":357.4027,"MEAN_ANOMALY":2.7156,"EPHEMERIS_TYPE":0,"CLASSIFICATION_TYPE":"U","NORAD_CAT_ID":57178,"ELEMENT_SET_NO":999,"REV_AT_EPOCH":15332,"BSTAR":0.00061378759,"MEAN_MOTION_DOT":0.0001751,"MEAN_MOTION_DDOT":0},{"OBJECT_NAME":"MONITOR-3 (RS58S)","OBJECT_ID":"2023-091Q","EPOCH":"2026-04-05T09:35:23.558208","MEAN_MOTION":15.26445512,"ECCENTRICITY":0.00116915,"INCLINATION":97.5144,"RA_OF_ASC_NODE":158.3688,"ARG_OF_PERICENTER":3.9322,"MEAN_ANOMALY":356.2006,"EPHEMERIS_TYPE":0,"CLASSIFICATION_TYPE":"U","NORAD_CAT_ID":57180,"ELEMENT_SET_NO":999,"REV_AT_EPOCH":15318,"BSTAR":0.00055130678,"MEAN_MOTION_DOT":0.00014333,"MEAN_MOTION_DDOT":0},{"OBJECT_NAME":"MONITOR-4 (RS57S)","OBJECT_ID":"2023-091S","EPOCH":"2026-04-05T10:46:08.458464","MEAN_MOTION":15.2653941,"ECCENTRICITY":0.00116061,"INCLINATION":97.5138,"RA_OF_ASC_NODE":158.3849,"ARG_OF_PERICENTER":4.3518,"MEAN_ANOMALY":355.782,"EPHEMERIS_TYPE":0,"CLASSIFICATION_TYPE":"U","NORAD_CAT_ID":57182,"ELEMENT_SET_NO":999,"REV_AT_EPOCH":15319,"BSTAR":0.00055269348,"MEAN_MOTION_DOT":0.0001441,"MEAN_MOTION_DDOT":0},{"OBJECT_NAME":"MONITOR-2 (RS39S)","OBJECT_ID":"2023-091U","EPOCH":"2026-04-05T13:35:34.073376","MEAN_MOTION":15.18261149,"ECCENTRICITY":0.0011458,"INCLINATION":97.5141,"RA_OF_ASC_NODE":154.3281,"ARG_OF_PERICENTER":13.9074,"MEAN_ANOMALY":346.2473,"EPHEMERIS_TYPE":0,"CLASSIFICATION_TYPE":"U","NORAD_CAT_ID":57184,"ELEMENT_SET_NO":999,"REV_AT_EPOCH":15293,"BSTAR":0.00034684101,"MEAN_MOTION_DOT":7.05e-5,"MEAN_MOTION_DDOT":0},{"OBJECT_NAME":"SVYATOBOR 1 (RS60S)","OBJECT_ID":"2023-091X","EPOCH":"2026-04-05T14:25:11.051040","MEAN_MOTION":15.25427105,"ECCENTRICITY":0.00091309,"INCLINATION":97.5149,"RA_OF_ASC_NODE":159.0615,"ARG_OF_PERICENTER":357.2748,"MEAN_ANOMALY":2.8439,"EPHEMERIS_TYPE":0,"CLASSIFICATION_TYPE":"U","NORAD_CAT_ID":57187,"ELEMENT_SET_NO":999,"REV_AT_EPOCH":15324,"BSTAR":0.00048103909,"MEAN_MOTION_DOT":0.00012106,"MEAN_MOTION_DDOT":0},{"OBJECT_NAME":"HORS 1","OBJECT_ID":"2023-091Y","EPOCH":"2026-04-05T12:36:18.015264","MEAN_MOTION":15.25505704,"ECCENTRICITY":0.0008652,"INCLINATION":97.5129,"RA_OF_ASC_NODE":158.7583,"ARG_OF_PERICENTER":357.9723,"MEAN_ANOMALY":2.1478,"EPHEMERIS_TYPE":0,"CLASSIFICATION_TYPE":"U","NORAD_CAT_ID":57188,"ELEMENT_SET_NO":999,"REV_AT_EPOCH":15323,"BSTAR":0.00049224482,"MEAN_MOTION_DOT":0.00012418,"MEAN_MOTION_DDOT":0},{"OBJECT_NAME":"VIZARD-METEO (RS38S)","OBJECT_ID":"2023-091Z","EPOCH":"2026-04-05T14:04:13.358208","MEAN_MOTION":15.33826588,"ECCENTRICITY":0.00064264,"INCLINATION":97.5141,"RA_OF_ASC_NODE":163.7265,"ARG_OF_PERICENTER":338.6443,"MEAN_ANOMALY":21.453,"EPHEMERIS_TYPE":0,"CLASSIFICATION_TYPE":"U","NORAD_CAT_ID":57189,"ELEMENT_SET_NO":999,"REV_AT_EPOCH":15355,"BSTAR":0.00062785632,"MEAN_MOTION_DOT":0.00020504,"MEAN_MOTION_DDOT":0},{"OBJECT_NAME":"NANOZOND 1 (RS49S)","OBJECT_ID":"2023-091AA","EPOCH":"2026-04-05T12:01:27.210432","MEAN_MOTION":15.93327729,"ECCENTRICITY":0.00073367,"INCLINATION":97.4951,"RA_OF_ASC_NODE":178.2006,"ARG_OF_PERICENTER":260.9774,"MEAN_ANOMALY":99.067,"EPHEMERIS_TYPE":0,"CLASSIFICATION_TYPE":"U","NORAD_CAT_ID":57190,"ELEMENT_SET_NO":999,"REV_AT_EPOCH":15451,"BSTAR":0.0017757036,"MEAN_MOTION_DOT":0.00625881,"MEAN_MOTION_DDOT":0.00016147297},{"OBJECT_NAME":"SITRO-AIS 6 (CHIRKIN)","OBJECT_ID":"2023-091AC","EPOCH":"2026-04-05T13:22:50.593728","MEAN_MOTION":15.24851681,"ECCENTRICITY":0.00121878,"INCLINATION":97.5128,"RA_OF_ASC_NODE":158.3163,"ARG_OF_PERICENTER":10.4978,"MEAN_ANOMALY":349.6511,"EPHEMERIS_TYPE":0,"CLASSIFICATION_TYPE":"U","NORAD_CAT_ID":57192,"ELEMENT_SET_NO":999,"REV_AT_EPOCH":15321,"BSTAR":0.00034138857,"MEAN_MOTION_DOT":8.427e-5,"MEAN_MOTION_DDOT":0}]
